ORBCOMM-X               
1 21576U 91050C   24280.11860832  .00002282  00000+0  69740-3 0  9993
2 21576  98.3785 345.5106 0002873 220.0792 140.0187 14.42791208745699
ORBCOMM FM01            
1 23545U 95017A   24279.51055294  .00021354  00000+0  25943-2 0  9995
2 23545  69.9683 346.4310 0007186 332.2410  27.8357 14.83473387574646
ORBCOMM FM02            
1 23546U 95017B   24279.97692694  .00030873  00000+0  37582-2 0  9995
2 23546  69.9708   4.9223 0009042 331.7577  28.3082 14.83274733574651
ORBCOMM FM08            
1 25112U 97084A   24280.30881540  .00007266  00000+0  21544-2 0  9992
2 25112  45.0120 144.9731 0007006  51.1901 308.9574 14.43779610404820
ORBCOMM FM10            
1 25113U 97084B   24280.32694707  .00007694  00000+0  22848-2 0  9995
2 25113  45.0135 146.8821 0004629  20.8198 339.2840 14.43656767404816
ORBCOMM FM11            
1 25114U 97084C   24279.94519244  .00009022  00000+0  26816-2 0  9990
2 25114  45.0123 148.9234 0005523  18.5788 341.5263 14.43466500404716
ORBCOMM FM12            
1 25115U 97084D   24279.90889480  .00009016  00000+0  26818-2 0  9994
2 25115  45.0128 148.8446 0004568  19.2748 340.8275 14.43434983404500
ORBCOMM FM09            
1 25116U 97084E   24280.13188319  .00006187  00000+0  18566-2 0  9992
2 25116  45.0130 148.5144 0005544   3.5868 356.5021 14.43373486404772
